IRIDIUM 106             
1 41917U 17003A   24240.62021242  .00000392  00000+0  13294-3 0  9999
2 41917  86.4017   3.7300 0001754  93.4908 266.6488 14.34216234398812
IRIDIUM 103             
1 41918U 17003B   24240.60752776  .00000282  00000+0  93758-4 0  9993
2 41918  86.4020   3.6371 0002215  80.5421 279.6025 14.34215633398839
IRIDIUM 109             
1 41919U 17003C   24240.05572000  .00000292  00000+0  97101-4 0  9990
2 41919  86.4019   3.9159 0002640  92.3494 267.8004 14.34219605398725
IRIDIUM 102             
1 41920U 17003D   24240.58215616  .00000063  00000+0  15265-4 0  9994
2 41920  86.4017   3.6339 0002182  95.6634 264.4811 14.34217242398886
IRIDIUM 105             
1 41921U 17003E   24240.34340401  .00000031  00000+0  41564-5 0  9997
2 41921  86.4015 332.1882 0002154  88.9471 271.1972 14.34221110400708
IRIDIUM 104             
1 41922U 17003F   24240.59484175  .00000436  00000+0  14874-3 0  9993
2 41922  86.4019   3.6610 0002463  88.6280 271.5198 14.34218134398870
IRIDIUM 114             
1 41923U 17003G   24240.39187117  .00000101  00000+0  29163-4 0  9995
2 41923  86.4018   3.7312 0001934  93.3363 266.8054 14.34214875398828
IRIDIUM 108             
1 41924U 17003H   24240.48993521  .00000565  00000+0  19478-3 0  9991
2 41924  86.4011 332.0473 0002076  96.7255 263.4177 14.34216860400697
